H1 CPF 01  gfz 2021 07 14 00  6951 tandemx   
H2 1003001  6202 36605    2021 07 14 00 59 42 2021 07 19 00 00 42   120 1 1  0 0 0
H9
10 0 59411  62622.000000  0   -4540745.960  -1413431.364   4973852.410
10 0 59411  62742.000000  0   -5182132.474  -1385043.659   4312774.152
10 0 59411  62862.000000  0   -5732144.211  -1322021.892   3575778.747
10 0 59411  62982.000000  0   -6180559.980  -1227150.243   2775821.546
10 0 59411  63102.000000  0   -6518996.930  -1103935.615   1926980.117
10 0 59411  63222.000000  0   -6741078.416   -956513.162   1044203.147
10 0 59411  63342.000000  0   -6842560.792   -789537.113    143039.653
10 0 59411  63462.000000  0   -6821417.505   -608059.841   -760643.228
10 0 59411  63582.000000  0   -6677878.725   -417402.419  -1650948.873
10 0 59411  63702.000000  0   -6414424.570   -223019.929  -2512238.433
10 0 59411  63822.000000  0   -6035735.788    -30365.976  -3329411.432
10 0 59411  63942.000000  0   -5548599.684    155242.007  -4088175.730
10 0 59411  64062.000000  0   -4961774.698    328752.007  -4775297.181
10 0 59411  64182.000000  0   -4285819.731    485498.513  -5378826.036
10 0 59411  64302.000000  0   -3532892.622    621312.705  -5888297.004
10 0 59411  64422.000000  0   -2716522.208    732618.329  -6294900.099
10 0 59411  64542.000000  0   -1851360.877    816512.821  -6591620.421
10 0 59411  64662.000000  0    -952920.894    870832.529  -6773348.748
10 0 59411  64782.000000  0     -37299.012    894200.808  -6836958.929
10 0 59411  64902.000000  0     879104.359    886057.950  -6781355.106
10 0 59411  65022.000000  0    1779871.367    846672.872  -6607491.309
10 0 59411  65142.000000  0    2648855.341    777136.744  -6318357.232
10 0 59411  65262.000000  0    3470465.161    679338.541  -5918932.070
10 0 59411  65382.000000  0    4229941.538    555922.207  -5416106.784
10 0 59411  65502.000000  0    4913622.056    410226.145  -4818576.748
10 0 59411  65622.000000  0    5509192.072    246206.762  -4136703.092
10 0 59411  65742.000000  0    6005914.647     68346.108  -3382342.658
10 0 59411  65862.000000  0    6394834.436   -118454.080  -2568650.125
10 0 59411  65982.000000  0    6668952.633   -308990.147  -1709853.790
10 0 59411  66102.000000  0    6823365.803   -497883.295   -821006.654
10 0 59411  66222.000000  0    6855364.425   -679711.911     82280.415
10 0 59411  66342.000000  0    6764489.335   -849147.027    984118.649
10 0 59411  66462.000000  0    6552542.793  -1001087.170   1868629.056
10 0 59411  66582.000000  0    6223554.754  -1130788.934   2720231.554
10 0 59411  66702.000000  0    5783701.626  -1233989.521   3523928.477
10 0 59411  66822.000000  0    5241183.920  -1307018.328   4265574.423
10 0 59411  66942.000000  0    4606064.419  -1346895.861   4932129.267
10 0 59411  67062.000000  0    3890071.335  -1351415.364   5511887.849
10 0 59411  67182.000000  0    3106372.486  -1319206.514   5994683.768
10 0 59411  67302.000000  0    2269324.479  -1249780.835   6372062.993
10 0 59411  67422.000000  0    1394204.376  -1143557.389   6637426.170
10 0 59411  67542.000000  0     496926.536  -1001868.269   6786138.856
10 0 59411  67662.000000  0    -406248.941   -826943.082   6815606.593
10 0 59411  67782.000000  0   -1299010.256   -621873.916   6725316.027
10 0 59411  67902.000000  0   -2165287.001   -390560.811   6516843.003
10 0 59411  68022.000000  0   -2989537.977   -137638.284   6193827.042
10 0 59411  68142.000000  0   -3757030.545    131615.781   5761912.967
10 0 59411  68262.000000  0   -4454107.530    411387.336   5228658.440
10 0 59411  68382.000000  0   -5068436.051    695447.754   4603407.524
10 0 59411  68502.000000  0   -5589233.919    977287.675   3897132.018
10 0 59411  68622.000000  0   -6007467.443   1250260.619   3122241.695
10 0 59411  68742.000000  0   -6316017.446   1507733.178   2292367.647
10 0 59411  68862.000000  0   -6509809.541   1743237.927   1422120.711
10 0 59411  68982.000000  0   -6585905.384   1950626.020    526829.389
10 0 59411  69102.000000  0   -6543550.409   2124215.325   -377738.474
10 0 59411  69222.000000  0   -6384176.808   2258929.294  -1275662.374
10 0 59411  69342.000000  0   -6111362.767   2350423.924  -2151157.695
10 0 59411  69462.000000  0   -5730749.278   2395200.057  -2988861.266
10 0 59411  69582.000000  0   -5249914.773   2390697.225  -3774106.866
10 0 59411  69702.000000  0   -4678213.213   2335366.415  -4493183.236
10 0 59411  69822.000000  0   -4026580.881   2228721.240  -5133570.589
10 0 59411  69942.000000  0   -3307317.069   2071366.943  -5684151.305
10 0 59411  70062.000000  0   -2533845.463   1865007.099  -6135393.058
10 0 59411  70182.000000  0   -1720459.458   1612427.890  -6479503.901
10 0 59411  70302.000000  0    -882056.137   1317460.192  -6710554.466
10 0 59411  70422.000000  0     -33866.819    984920.876  -6824569.124
10 0 59411  70542.000000  0     808813.050    620535.059  -6819586.327
10 0 59411  70662.000000  0    1630892.902    230839.740  -6695691.024
10 0 59411  70782.000000  0    2417752.121   -176931.013  -6455012.920
10 0 59411  70902.000000  0    3155494.319   -594976.322  -6101694.039
10 0 59411  71022.000000  0    3831190.185  -1015073.238  -5641824.393
10 0 59411  71142.000000  0    4433102.982  -1428733.329  -5083347.416
10 0 59411  71262.000000  0    4950896.796  -1827370.665  -4435935.075
10 0 59411  71382.000000  0    5375821.011  -2202477.031  -3710831.081
10 0 59411  71502.000000  0    5700867.816  -2545800.659  -2920664.857
10 0 59411  71622.000000  0    5920898.815  -2849525.082  -2079237.270
10 0 59411  71742.000000  0    6032736.246  -3106443.709  -1201281.547
10 0 59411  71862.000000  0    6035216.975  -3310125.790   -302204.308
10 0 59411  71982.000000  0    5929206.796  -3455069.837    602189.569
10 0 59411  72102.000000  0    5717574.583  -3536840.358   1495981.704
10 0 59411  72222.000000  0    5405125.333  -3552183.651   2363430.821
10 0 59411  72342.000000  0    4998492.099  -3499118.521   3189258.507
10 0 59411  72462.000000  0    4505993.218  -3377001.004   3958925.404
10 0 59411  72582.000000  0    3937457.962  -3186560.840   4658891.525
10 0 59411  72702.000000  0    3304024.008  -2929910.827   5276857.795
10 0 59411  72822.000000  0    2617911.190  -2610526.168   5801981.098
10 0 59411  72942.000000  0    1892179.755  -2233196.174   6225060.808
10 0 59411  73062.000000  0    1140476.822  -1803950.276   6538694.564
10 0 59411  73182.000000  0     376776.608  -1329959.214   6737401.751
10 0 59411  73302.000000  0    -384880.523   -819413.091   6817713.351
10 0 59411  73422.000000  0   -1130645.626   -281378.815   6778227.941
10 0 59411  73542.000000  0   -1847111.776    274360.659   6619634.444
10 0 59411  73662.000000  0   -2521554.165    837483.729   6344700.947
10 0 59411  73782.000000  0   -3142156.224   1397320.891   5958229.650
10 0 59411  73902.000000  0   -3698218.421   1943055.972   5466978.610
10 0 59411  74022.000000  0   -4180347.145   2463935.255   4879550.369
10 0 59411  74142.000000  0   -4580619.506   2949481.157   4206247.049
10 0 59411  74262.000000  0   -4892720.161   3389704.399   3458892.995
10 0 59411  74382.000000  0   -5112046.780   3775311.544   2650629.260
10 0 59411  74502.000000  0   -5235782.574   4097903.448   1795682.414
10 0 59411  74622.000000  0   -5262934.000   4350159.537    909110.238
10 0 59411  74742.000000  0   -5194330.385   4526002.009      6529.126
10 0 59411  74862.000000  0   -5032586.721   4620735.504   -896168.582
10 0 59411  74982.000000  0   -4782030.901   4631160.750  -1783103.970
10 0 59411  75102.000000  0   -4448594.991   4555657.125  -2638700.429
10 0 59411  75222.000000  0   -4039675.153   4394231.343  -3447963.926
10 0 59411  75342.000000  0   -3563963.799   4148533.021  -4196748.648
10 0 59411  75462.000000  0   -3031259.681   3821837.467  -4872002.317
10 0 59411  75582.000000  0   -2452261.935   3418997.071  -5461987.251
10 0 59411  75702.000000  0   -1838353.139   2946364.162  -5956476.422
10 0 59411  75822.000000  0   -1201373.648   2411684.891  -6346921.322
10 0 59411  75942.000000  0    -553393.522   1823967.346  -6626587.814
10 0 59411  76062.000000  0      93513.114   1193328.399  -6790660.930
10 0 59411  76182.000000  0     727487.568    530820.627  -6836318.880
10 0 59411  76302.000000  0    1337099.128   -151757.585  -6762777.707
10 0 59411  76422.000000  0    1911546.811   -842068.113  -6571302.158
10 0 59411  76542.000000  0    2440845.721  -1527450.127  -6265185.826
10 0 59411  76662.000000  0    2915998.173  -2195146.377  -5849700.750
10 0 59411  76782.000000  0    3329146.286  -2832535.630  -5332017.375
10 0 59411  76902.000000  0    3673705.533  -3427371.192  -4721092.565
10 0 59411  77022.000000  0    3944473.064  -3968016.926  -4027523.577
10 0 59411  77142.000000  0    4137710.151  -4443676.446  -3263374.719
10 0 59411  77262.000000  0    4251198.762  -4844613.367  -2441976.088
10 0 59411  77382.000000  0    4284269.271  -5162356.886  -1577695.353
10 0 59411  77502.000000  0    4237796.041  -5389886.774   -685686.102
10 0 59411  77622.000000  0    4114162.201  -5521791.670    218381.754
10 0 59411  77742.000000  0    3917193.071  -5554397.309   1118603.727
10 0 59411  77862.000000  0    3652060.514  -5485860.715   1999129.553
10 0 59411  77982.000000  0    3325158.785  -5316225.994   2844451.832
10 0 59411  78102.000000  0    2943956.183  -5047443.012   3639686.268
10 0 59411  78222.000000  0    2516827.199  -4683347.049   4370839.771
10 0 59411  78342.000000  0    2052869.256  -4229600.673   5025060.111
10 0 59411  78462.000000  0    1561708.114  -3693599.324   5590862.260
10 0 59411  78582.000000  0    1053296.821  -3084343.189   6058328.350
10 0 59411  78702.000000  0     537712.218  -2412278.474   6419276.176
10 0 59411  78822.000000  0      24954.719  -1689112.996   6667395.393
10 0 59411  78942.000000  0    -475244.732   -927609.575   6798351.591
10 0 59411  79062.000000  0    -953608.104   -141359.009   6809858.435
99
